<?xml version="1.0" encoding="UTF-8"?>
<ndm xmlns:xsi="http://www.w3.org/2001/XMLSchema-instance" xsi:noNamespaceSchemaLocation="https://sanaregistry.org/r/ndmxml_unqualified/ndmxml-2.0.0-master-2.0.xsd">
<omm id="CCSDS_OMM_VERS" version="2.0">
<header><CREATION_DATE/><ORIGINATOR/></header><body><segment><metadata><OBJECT_NAME>IRIDIUM 144</OBJECT_NAME><OBJECT_ID>2018-030A</OBJECT_ID><CENTER_NAME>EARTH</CENTER_NAME><REF_FRAME>TEME</REF_FRAME><TIME_SYSTEM>UTC</TIME_SYSTEM><MEAN_ELEMENT_THEORY>SGP4</MEAN_ELEMENT_THEORY></metadata><data><meanElements><EPOCH>2024-09-26T13:06:55.382112</EPOCH><MEAN_MOTION>14.34223769</MEAN_MOTION><ECCENTRICITY>.0002372</ECCENTRICITY><INCLINATION>86.4039</INCLINATION><RA_OF_ASC_NODE>193.1338</RA_OF_ASC_NODE><ARG_OF_PERICENTER>87.7854</ARG_OF_PERICENTER><MEAN_ANOMALY>272.3613</MEAN_ANOMALY></meanElements><tleParameters><EPHEMERIS_TYPE>0</EPHEMERIS_TYPE><CLASSIFICATION_TYPE>U</CLASSIFICATION_TYPE><NORAD_CAT_ID>43249</NORAD_CAT_ID><ELEMENT_SET_NO>999</ELEMENT_SET_NO><REV_AT_EPOCH>34003</REV_AT_EPOCH><BSTAR>.25025E-3</BSTAR><MEAN_MOTION_DOT>.721E-5</MEAN_MOTION_DOT><MEAN_MOTION_DDOT>0</MEAN_MOTION_DDOT></tleParameters></data></segment></body></omm>
<omm id="CCSDS_OMM_VERS" version="2.0">
<header><CREATION_DATE/><ORIGINATOR/></header><body><segment><metadata><OBJECT_NAME>IRIDIUM 149</OBJECT_NAME><OBJECT_ID>2018-030B</OBJECT_ID><CENTER_NAME>EARTH</CENTER_NAME><REF_FRAME>TEME</REF_FRAME><TIME_SYSTEM>UTC</TIME_SYSTEM><MEAN_ELEMENT_THEORY>SGP4</MEAN_ELEMENT_THEORY></metadata><data><meanElements><EPOCH>2024-09-26T18:17:26.670336</EPOCH><MEAN_MOTION>14.34220047</MEAN_MOTION><ECCENTRICITY>.0002516</ECCENTRICITY><INCLINATION>86.4039</INCLINATION><RA_OF_ASC_NODE>193.0179</RA_OF_ASC_NODE><ARG_OF_PERICENTER>84.2068</ARG_OF_PERICENTER><MEAN_ANOMALY>275.9414</MEAN_ANOMALY></meanElements><tleParameters><EPHEMERIS_TYPE>0</EPHEMERIS_TYPE><CLASSIFICATION_TYPE>U</CLASSIFICATION_TYPE><NORAD_CAT_ID>43250</NORAD_CAT_ID><ELEMENT_SET_NO>999</ELEMENT_SET_NO><REV_AT_EPOCH>34008</REV_AT_EPOCH><BSTAR>.30426E-3</BSTAR><MEAN_MOTION_DOT>.872E-5</MEAN_MOTION_DOT><MEAN_MOTION_DDOT>0</MEAN_MOTION_DDOT></tleParameters></data></segment></body></omm>
<omm id="CCSDS_OMM_VERS" version="2.0">
<header><CREATION_DATE/><ORIGINATOR/></header><body><segment><metadata><OBJECT_NAME>IRIDIUM 157</OBJECT_NAME><OBJECT_ID>2018-030C</OBJECT_ID><CENTER_NAME>EARTH</CENTER_NAME><REF_FRAME>TEME</REF_FRAME><TIME_SYSTEM>UTC</TIME_SYSTEM><MEAN_ELEMENT_THEORY>SGP4</MEAN_ELEMENT_THEORY></metadata><data><meanElements><EPOCH>2024-09-26T07:01:35.943168</EPOCH><MEAN_MOTION>14.34219899</MEAN_MOTION><ECCENTRICITY>.0002492</ECCENTRICITY><INCLINATION>86.4041</INCLINATION><RA_OF_ASC_NODE>193.2527</RA_OF_ASC_NODE><ARG_OF_PERICENTER>75.6207</ARG_OF_PERICENTER><MEAN_ANOMALY>284.5265</MEAN_ANOMALY></meanElements><tleParameters><EPHEMERIS_TYPE>0</EPHEMERIS_TYPE><CLASSIFICATION_TYPE>U</CLASSIFICATION_TYPE><NORAD_CAT_ID>43251</NORAD_CAT_ID><ELEMENT_SET_NO>999</ELEMENT_SET_NO><REV_AT_EPOCH>33999</REV_AT_EPOCH><BSTAR>.31411E-3</BSTAR><MEAN_MOTION_DOT>.9E-5</MEAN_MOTION_DOT><MEAN_MOTION_DDOT>0</MEAN_MOTION_DDOT></tleParameters></data></segment></body></omm>
<omm id="CCSDS_OMM_VERS" version="2.0">
<header><CREATION_DATE/><ORIGINATOR/></header><body><segment><metadata><OBJECT_NAME>IRIDIUM 140</OBJECT_NAME><OBJECT_ID>2018-030D</OBJECT_ID><CENTER_NAME>EARTH</CENTER_NAME><REF_FRAME>TEME</REF_FRAME><TIME_SYSTEM>UTC</TIME_SYSTEM><MEAN_ELEMENT_THEORY>SGP4</MEAN_ELEMENT_THEORY></metadata><data><meanElements><EPOCH>2024-09-26T17:31:47.264160</EPOCH><MEAN_MOTION>14.34218248</MEAN_MOTION><ECCENTRICITY>.0002019</ECCENTRICITY><INCLINATION>86.4040</INCLINATION><RA_OF_ASC_NODE>193.0846</RA_OF_ASC_NODE><ARG_OF_PERICENTER>88.4258</ARG_OF_PERICENTER><MEAN_ANOMALY>271.7169</MEAN_ANOMALY></meanElements><tleParameters><EPHEMERIS_TYPE>0</EPHEMERIS_TYPE><CLASSIFICATION_TYPE>U</CLASSIFICATION_TYPE><NORAD_CAT_ID>43252</NORAD_CAT_ID><ELEMENT_SET_NO>999</ELEMENT_SET_NO><REV_AT_EPOCH>34011</REV_AT_EPOCH><BSTAR>.1626E-3</BSTAR><MEAN_MOTION_DOT>.475E-5</MEAN_MOTION_DOT><MEAN_MOTION_DDOT>0</MEAN_MOTION_DDOT></tleParameters></data></segment></body></omm>
<omm id="CCSDS_OMM_VERS" version="2.0">
<header><CREATION_DATE/><ORIGINATOR/></header><body><segment><metadata><OBJECT_NAME>IRIDIUM 145</OBJECT_NAME><OBJECT_ID>2018-030E</OBJECT_ID><CENTER_NAME>EARTH</CENTER_NAME><REF_FRAME>TEME</REF_FRAME><TIME_SYSTEM>UTC</TIME_SYSTEM><MEAN_ELEMENT_THEORY>SGP4</MEAN_ELEMENT_THEORY></metadata><data><meanElements><EPOCH>2024-09-25T12:45:35.283168</EPOCH><MEAN_MOTION>14.34216218</MEAN_MOTION><ECCENTRICITY>.0002602</ECCENTRICITY><INCLINATION>86.4039</INCLINATION><RA_OF_ASC_NODE>193.5579</RA_OF_ASC_NODE><ARG_OF_PERICENTER>93.1219</ARG_OF_PERICENTER><MEAN_ANOMALY>267.0275</MEAN_ANOMALY></meanElements><tleParameters><EPHEMERIS_TYPE>0</EPHEMERIS_TYPE><CLASSIFICATION_TYPE>U</CLASSIFICATION_TYPE><NORAD_CAT_ID>43253</NORAD_CAT_ID><ELEMENT_SET_NO>999</ELEMENT_SET_NO><REV_AT_EPOCH>33987</REV_AT_EPOCH><BSTAR>.94231E-6</BSTAR><MEAN_MOTION_DOT>.22E-6</MEAN_MOTION_DOT><MEAN_MOTION_DDOT>0</MEAN_MOTION_DDOT></tleParameters></data></segment></body></omm>
<omm id="CCSDS_OMM_VERS" version="2.0">
<header><CREATION_DATE/><ORIGINATOR/></header><body><segment><metadata><OBJECT_NAME>IRIDIUM 146</OBJECT_NAME><OBJECT_ID>2018-030F</OBJECT_ID><CENTER_NAME>EARTH</CENTER_NAME><REF_FRAME>TEME</REF_FRAME><TIME_SYSTEM>UTC</TIME_SYSTEM><MEAN_ELEMENT_THEORY>SGP4</MEAN_ELEMENT_THEORY></metadata><data><meanElements><EPOCH>2024-09-26T06:43:18.581088</EPOCH><MEAN_MOTION>14.34225870</MEAN_MOTION><ECCENTRICITY>.0002306</ECCENTRICITY><INCLINATION>86.4040</INCLINATION><RA_OF_ASC_NODE>193.2604</RA_OF_ASC_NODE><ARG_OF_PERICENTER>90.2368</ARG_OF_PERICENTER><MEAN_ANOMALY>269.9092</MEAN_ANOMALY></meanElements><tleParameters><EPHEMERIS_TYPE>0</EPHEMERIS_TYPE><CLASSIFICATION_TYPE>U</CLASSIFICATION_TYPE><NORAD_CAT_ID>43254</NORAD_CAT_ID><ELEMENT_SET_NO>999</ELEMENT_SET_NO><REV_AT_EPOCH>33999</REV_AT_EPOCH><BSTAR>.31734E-3</BSTAR><MEAN_MOTION_DOT>.909E-5</MEAN_MOTION_DOT><MEAN_MOTION_DDOT>0</MEAN_MOTION_DDOT></tleParameters></data></segment></body></omm>
<omm id="CCSDS_OMM_VERS" version="2.0">
<header><CREATION_DATE/><ORIGINATOR/></header><body><segment><metadata><OBJECT_NAME>IRIDIUM 148</OBJECT_NAME><OBJECT_ID>2018-030G</OBJECT_ID><CENTER_NAME>EARTH</CENTER_NAME><REF_FRAME>TEME</REF_FRAME><TIME_SYSTEM>UTC</TIME_SYSTEM><MEAN_ELEMENT_THEORY>SGP4</MEAN_ELEMENT_THEORY></metadata><data><meanElements><EPOCH>2024-09-26T12:39:31.109760</EPOCH><MEAN_MOTION>14.34222134</MEAN_MOTION><ECCENTRICITY>.0002451</ECCENTRICITY><INCLINATION>86.4043</INCLINATION><RA_OF_ASC_NODE>193.1905</RA_OF_ASC_NODE><ARG_OF_PERICENTER>85.1450</ARG_OF_PERICENTER><MEAN_ANOMALY>275.0026</MEAN_ANOMALY></meanElements><tleParameters><EPHEMERIS_TYPE>0</EPHEMERIS_TYPE><CLASSIFICATION_TYPE>U</CLASSIFICATION_TYPE><NORAD_CAT_ID>43255</NORAD_CAT_ID><ELEMENT_SET_NO>999</ELEMENT_SET_NO><REV_AT_EPOCH>34006</REV_AT_EPOCH><BSTAR>.25416E-3</BSTAR><MEAN_MOTION_DOT>.732E-5</MEAN_MOTION_DOT><MEAN_MOTION_DDOT>0</MEAN_MOTION_DDOT></tleParameters></data></segment></body></omm>
<omm id="CCSDS_OMM_VERS" version="2.0">
<header><CREATION_DATE/><ORIGINATOR/></header><body><segment><metadata><OBJECT_NAME>IRIDIUM 142</OBJECT_NAME><OBJECT_ID>2018-030H</OBJECT_ID><CENTER_NAME>EARTH</CENTER_NAME><REF_FRAME>TEME</REF_FRAME><TIME_SYSTEM>UTC</TIME_SYSTEM><MEAN_ELEMENT_THEORY>SGP4</MEAN_ELEMENT_THEORY></metadata><data><meanElements><EPOCH>2024-09-26T06:52:28.231104</EPOCH><MEAN_MOTION>14.34219389</MEAN_MOTION><ECCENTRICITY>.0002602</ECCENTRICITY><INCLINATION>86.4039</INCLINATION><RA_OF_ASC_NODE>193.2031</RA_OF_ASC_NODE><ARG_OF_PERICENTER>89.7944</ARG_OF_PERICENTER><MEAN_ANOMALY>270.3550</MEAN_ANOMALY></meanElements><tleParameters><EPHEMERIS_TYPE>0</EPHEMERIS_TYPE><CLASSIFICATION_TYPE>U</CLASSIFICATION_TYPE><NORAD_CAT_ID>43256</NORAD_CAT_ID><ELEMENT_SET_NO>999</ELEMENT_SET_NO><REV_AT_EPOCH>33999</REV_AT_EPOCH><BSTAR>.32093E-3</BSTAR><MEAN_MOTION_DOT>.919E-5</MEAN_MOTION_DOT><MEAN_MOTION_DDOT>0</MEAN_MOTION_DDOT></tleParameters></data></segment></body></omm>

</ndm>
