IRIDIUM 144             
1 43249U 18030A   24270.54647433  .00000721  00000+0  25025-3 0  9991
2 43249  86.4039 193.1338 0002372  87.7854 272.3613 14.34223769340030
IRIDIUM 149             
1 43250U 18030B   24270.76211424  .00000872  00000+0  30426-3 0  9992
2 43250  86.4039 193.0179 0002516  84.2068 275.9414 14.34220047340082
IRIDIUM 157             
1 43251U 18030C   24270.29277712  .00000900  00000+0  31411-3 0  9990
2 43251  86.4041 193.2527 0002492  75.6207 284.5265 14.34219899339998
IRIDIUM 140             
1 43252U 18030D   24270.73040815  .00000475  00000+0  16260-3 0  9994
2 43252  86.4040 193.0846 0002019  88.4258 271.7169 14.34218248340117
IRIDIUM 145             
1 43253U 18030E   24269.53165837  .00000022  00000+0  94231-6 0  9998
2 43253  86.4039 193.5579 0002602  93.1219 267.0275 14.34216218339874
IRIDIUM 146             
1 43254U 18030F   24270.28007617  .00000909  00000+0  31734-3 0  9994
2 43254  86.4040 193.2604 0002306  90.2368 269.9092 14.34225870339992
IRIDIUM 148             
1 43255U 18030G   24270.52744340  .00000732  00000+0  25416-3 0  9997
2 43255  86.4043 193.1905 0002451  85.1450 275.0026 14.34222134340060
IRIDIUM 142             
1 43256U 18030H   24270.28643786  .00000919  00000+0  32093-3 0  9999
2 43256  86.4039 193.2031 0002602  89.7944 270.3550 14.34219389339991
